NORAD_CAT_ID,OBJECT_NAME,OBJECT_TYPE,EPOCH,MEAN_MOTION,ECCENTRICITY,INCLINATION,RA_OF_ASC_NODE,ARG_OF_PERICENTER,MEAN_ANOMALY,BSTAR,MEAN_MOTION_DOT,MEAN_MOTION_DDOT,TLE_LINE0,TLE_LINE1,TLE_LINE2,SEMIMAJOR_AXIS,PERIOD,APOGEE,PERIGEE,DECAYED
56816.0,STARLINK-6067,PAYLOAD,2024-07-04 09:37:15,14.98334731,0.0003343,69.9994,70.5797,269.4529,90.6247,7.1954e-05,7.66e-06,0.0,0 STARLINK-6067,1 56816U 23078BB  24186.40087946  .00000766  00000-0  71954-4 0  9994,2 56816  69.9994  70.5797 0003343 269.4529  90.6247 14.98334731 61311,6950.178,96.107,574.367,569.72,0.0
56816.0,STARLINK-6067,PAYLOAD,2024-07-04 20:50:12,14.98327575,0.000319,70.0,69.402,268.1741,91.9053,7.9272e-05,8.53e-06,0.0,0 STARLINK-6067,1 56816U 23078BB  24186.86820418  .00000853  00000-0  79272-4 0  9991,2 56816  70.0000  69.4020 0003190 268.1741  91.9053 14.98327575 61643,6950.2,96.107,574.283,569.848,0.0
56816.0,STARLINK-6067,PAYLOAD,2024-07-04 22:26:20,14.98330648,0.0003098,69.9999,69.2333,265.5691,94.5114,8.3811e-05,9.07e-06,0.0,0 STARLINK-6067,1 56816U 23078BB  24186.93496209  .00000907  00000-0  83811-4 0  9990,2 56816  69.9999  69.2333 0003098 265.5691  94.5114 14.98330648 61398,6950.191,96.107,574.209,569.903,0.0
56816.0,STARLINK-6067,PAYLOAD,2024-07-05 09:39:16,14.9833597,0.0003266,69.9994,68.0541,267.071,93.0075,5.0418e-05,5.09e-06,0.0,0 STARLINK-6067,1 56816U 23078BB  24187.40227781  .00000509  00000-0  50418-4 0  9995,2 56816  69.9994  68.0541 0003266 267.0710  93.0075 14.98335970 61727,6950.174,96.107,574.309,569.77,0.0
56816.0,STARLINK-6067,PAYLOAD,2024-07-05 22:28:21,14.98333668,0.0003311,69.9995,66.7078,272.6619,87.4161,0.00014764,1.669e-05,0.0,0 STARLINK-6067,1 56816U 23078BB  24187.93635783  .00001669  00000-0  14764-3 0  9999,2 56816  69.9995  66.7078 0003311 272.6619  87.4161 14.98333668 61544,6950.182,96.107,574.348,569.745,0.0
56816.0,STARLINK-6067,PAYLOAD,2024-07-06 09:41:18,14.98329696,0.0003112,69.9994,65.5283,275.5213,84.5591,9.308e-05,1.018e-05,0.0,0 STARLINK-6067,1 56816U 23078BB  24188.40368101  .00001018  00000-0  93080-4 0  9996,2 56816  69.9994  65.5283 0003112 275.5213  84.5591 14.98329696 61876,6950.194,96.107,574.222,569.896,0.0
56816.0,STARLINK-6067,PAYLOAD,2024-07-06 22:30:22,14.98328257,0.0003064,69.9995,64.1824,266.4675,93.6134,6.125e-05,6.38e-06,0.0,0 STARLINK-6067,1 56816U 23078BB  24188.93776126  .00000638  00000-0  61250-4 0  9995,2 56816  69.9995  64.1824 0003064 266.4675  93.6134 14.98328257 61696,6950.198,96.107,574.193,569.934,0.0
56816.0,STARLINK-6067,PAYLOAD,2024-07-07 01:42:38,14.98330648,0.0003162,69.9994,63.8459,269.7514,90.3282,4.9974e-05,5.03e-06,0.0,0 STARLINK-6067,1 56816U 23078BB  24189.07127984  .00000503  00000-0  49974-4 0  9993,2 56816  69.9994  63.8459 0003162 269.7514  90.3282 14.98330648 61710,6950.191,96.107,574.254,569.858,0.0
56816.0,STARLINK-6067,PAYLOAD,2024-07-07 19:20:07,14.98333602,0.0003108,69.9996,61.9941,270.0951,89.9851,8.6991e-05,9.45e-06,0.0,0 STARLINK-6067,1 56816U 23078BB  24189.80563708  .00000945  00000-0  86991-4 0  9992,2 56816  69.9996  61.9941 0003108 270.0951  89.9851 14.98333602 62087,6950.182,96.107,574.207,569.887,0.0
56816.0,STARLINK-6067,PAYLOAD,2024-07-08 08:09:11,14.98333366,0.0003068,69.9998,60.6473,270.9956,89.0851,6.4081e-05,6.72e-06,0.0,0 STARLINK-6067,1 56816U 23078BB  24190.33971576  .00000672  00000-0  64081-4 0  9991,2 56816  69.9998  60.6473 0003068 270.9956  89.0851 14.98333366 61902,6950.182,96.107,574.18,569.915,0.0
56816.0,STARLINK-6067,PAYLOAD,2024-07-08 20:58:16,14.98328517,0.0003046,69.9998,59.3007,271.5175,88.5635,6.6003e-05,6.95e-06,0.0,0 STARLINK-6067,1 56816U 23078BB  24190.87379914  .00000695  00000-0  66003-4 0  9999,2 56816  69.9998  59.3007 0003046 271.5175  88.5635 14.98328517 62240,6950.197,96.107,574.18,569.945,0.0
56816.0,STARLINK-6067,PAYLOAD,2024-07-08 22:34:24,14.98331669,0.0002994,69.9997,59.1326,270.8813,89.2003,0.00010069,1.109e-05,0.0,0 STARLINK-6067,1 56816U 23078BB  24190.94055625  .00001109  00000-0  10069-3 0  9998,2 56816  69.9997  59.1326 0002994 270.8813  89.2003 14.98331669 61993,6950.188,96.107,574.134,569.972,0.0
56816.0,STARLINK-6067,PAYLOAD,2024-07-09 01:46:39,14.98334352,0.0002982,69.9998,58.7959,271.0165,89.0652,0.00012794,1.434e-05,0.0,0 STARLINK-6067,1 56816U 23078BB  24191.07407378  .00001434  00000-0  12794-3 0  9997,2 56816  69.9998  58.7959 0002982 271.0165  89.0652 14.98334352 62273,6950.179,96.107,574.117,569.972,0.0
56816.0,STARLINK-6067,PAYLOAD,2024-07-09 08:11:12,14.98328704,0.0002944,70.0,58.1223,271.9505,88.1317,4.6765e-05,4.65e-06,0.0,0 STARLINK-6067,1 56816U 23078BB  24191.34111878  .00000465  00000-0  46765-4 0  9993,2 56816  70.0000  58.1223 0002944 271.9505  88.1317 14.98328704 62310,6950.197,96.107,574.108,570.016,0.0
56816.0,STARLINK-6067,PAYLOAD,2024-07-09 22:36:25,14.98328403,0.0002805,70.0002,56.6076,269.5375,90.5462,-2.0364e-05,-3.36e-06,0.0,0 STARLINK-6067,1 56816U 23078BB  24191.94196055 -.00000336  00000-0 -20364-4 0  9995,2 56816  70.0002  56.6076 0002805 269.5375  90.5462 14.98328403 62140,6950.198,96.107,574.012,570.113,0.0
56816.0,STARLINK-6067,PAYLOAD,2024-07-10 08:13:13,14.98331358,0.0002807,70.0001,55.5974,271.348,88.7357,1.1421e-06,-7.9e-07,0.0,0 STARLINK-6067,1 56816U 23078BB  24192.34251830 -.00000079  00000-0  11421-5 0  9991,2 56816  70.0001  55.5974 0002807 271.3480  88.7357 14.98331358 62464,6950.189,96.107,574.005,570.103,0.0
56816.0,STARLINK-6067,PAYLOAD,2024-07-10 14:37:45,14.98331557,0.0002849,69.9999,54.9242,270.9601,89.1232,4.3411e-05,4.25e-06,0.0,0 STARLINK-6067,1 56816U 23078BB  24192.60955683  .00000425  00000-0  43411-4 0  9994,2 56816  69.9999  54.9242 0002849 270.9601  89.1232 14.98331557 62248,6950.188,96.107,574.033,570.073,0.0
56816.0,STARLINK-6067,PAYLOAD,2024-07-10 22:38:26,14.98331711,0.0002866,69.9999,54.0826,270.8959,89.1871,3.6686e-05,3.45e-06,0.0,0 STARLINK-6067,1 56816U 23078BB  24192.94335656  .00000345  00000-0  36686-4 0  9990,2 56816  69.9999  54.0826 0002866 270.8959  89.1871 14.98331711 62297,6950.188,96.107,574.045,570.061,0.0
56816.0,STARLINK-6067,PAYLOAD,2024-07-11 00:14:34,14.98332217,0.0002886,69.9999,53.9141,271.46,88.6229,4.0837e-05,3.94e-06,0.0,0 STARLINK-6067,1 56816U 23078BB  24193.01011607  .00000394  00000-0  40837-4 0  9993,2 56816  69.9999  53.9141 0002886 271.4600  88.6229 14.98332217 62302,6950.186,96.107,574.057,570.045,0.0
56816.0,STARLINK-6067,PAYLOAD,2024-07-11 21:04:18,14.98331931,0.0002995,69.9996,51.7262,270.5732,89.5083,9.3405e-05,1.022e-05,0.0,0 STARLINK-6067,1 56816U 23078BB  24193.87799409  .00001022  00000-0  93405-4 0  9998,2 56816  69.9996  51.7262 0002995 270.5732  89.5083 14.98331931 62430,6950.187,96.107,574.134,569.97,0.0
56816.0,STARLINK-6067,PAYLOAD,2024-07-12 00:16:34,14.98333041,0.0002991,69.9997,51.3896,270.5124,89.5692,0.00010287,1.135e-05,0.0,0 STARLINK-6067,1 56816U 23078BB  24194.01151309  .00001135  00000-0  10287-3 0  9997,2 56816  69.9997  51.3896 0002991 270.5124  89.5692 14.98333041 62712,6950.183,96.107,574.127,569.97,0.0
56816.0,STARLINK-6067,PAYLOAD,2024-07-12 14:41:47,14.9832946,0.0002949,69.9998,49.8732,270.8646,89.2175,3.2338e-05,2.93e-06,0.0,0 STARLINK-6067,1 56816U 23078BB  24194.61235713  .00000293  00000-0  32338-4 0  9991,2 56816  69.9998  49.8732 0002949 270.8646  89.2175 14.98329460 62543,6950.195,96.107,574.109,570.01,0.0
56816.0,STARLINK-6067,PAYLOAD,2024-07-12 21:06:19,14.98329188,0.0002987,69.9997,49.1998,270.4583,89.6233,-2.4844e-06,-1.23e-06,0.0,0 STARLINK-6067,1 56816U 23078BB  24194.87939801 -.00000123  00000-0 -24844-5 0  9996,2 56816  69.9997  49.1998 0002987 270.4583  89.6233 14.98329188 62846,6950.195,96.107,574.136,569.984,0.0
56816.0,STARLINK-6067,PAYLOAD,2024-07-12 22:42:27,14.98330617,0.0002976,69.9997,49.0315,270.4176,89.6642,1.3633e-05,7e-07,0.0,0 STARLINK-6067,1 56816U 23078BB  24194.94615662  .00000070  00000-0  13633-4 0  9992,2 56816  69.9997  49.0315 0002976 270.4176  89.6642 14.98330617 62599,6950.191,96.107,574.124,569.988,0.0
56816.0,STARLINK-6067,PAYLOAD,2024-07-13 14:43:48,14.98332116,0.0002968,69.9997,47.3482,270.3892,89.6927,1.1235e-05,4.1e-07,0.0,0 STARLINK-6067,1 56816U 23078BB  24195.61375551  .00000041  00000-0  11235-4 0  9991,2 56816  69.9997  47.3482 0002968 270.3892  89.6927 14.98332116 62693,6950.186,96.107,574.114,569.989,0.0
56816.0,STARLINK-6067,PAYLOAD,2024-07-13 21:08:20,14.98335353,0.0003015,69.9997,46.6754,271.4198,88.6616,4.2948e-05,4.2e-06,0.0,0 STARLINK-6067,1 56816U 23078BB  24195.88079260  .00000420  00000-0  42948-4 0  9994,2 56816  69.9997  46.6754 0003015 271.4198  88.6616 14.98335353 62995,6950.176,96.107,574.137,569.946,0.0
56816.0,STARLINK-6067,PAYLOAD,2024-07-13 22:44:28,14.98335407,0.0003026,69.9997,46.5072,271.6449,88.4364,4.2268e-05,4.11e-06,0.0,0 STARLINK-6067,1 56816U 23078BB  24195.94755246  .00000411  00000-0  42268-4 0  9991,2 56816  69.9997  46.5072 0003026 271.6449  88.4364 14.98335407 62741,6950.176,96.107,574.144,569.938,0.0
56816.0,STARLINK-6067,PAYLOAD,2024-07-14 14:45:49,14.9832896,0.0002952,70.0,44.8238,273.1429,86.9392,6.3556e-05,6.65e-06,0.0,0 STARLINK-6067,1 56816U 23078BB  24196.61515545  .00000665  00000-0  63556-4 0  9996,2 56816  70.0000  44.8238 0002952 273.1429  86.9392 14.98328960 62847,6950.196,96.107,574.113,570.009,0.0
56816.0,STARLINK-6067,PAYLOAD,2024-07-14 21:10:21,14.98331549,0.0002884,70.0001,44.1513,269.0953,90.9875,8.8469e-05,9.63e-06,0.0,0 STARLINK-6067,1 56816U 23078BB  24196.88219318  .00000963  00000-0  88469-4 0  9995,2 56816  70.0001  44.1513 0002884 269.0953  90.9875 14.98331549 63149,6950.188,96.107,574.058,570.049,0.0
56816.0,STARLINK-6067,PAYLOAD,2024-07-14 22:46:29,14.98332653,0.0002871,70.0001,43.983,268.8718,91.2112,9.9664e-05,1.096e-05,0.0,0 STARLINK-6067,1 56816U 23078BB  24196.94895216  .00001096  00000-0  99664-4 0  9996,2 56816  70.0001  43.9830 0002871 268.8718  91.2112 14.98332653 62896,6950.185,96.107,574.045,570.054,0.0
